start=new Date('2021-11-25T00:00:00.000Z').valueOf();
sats=[{"CENTER_NAME":"EARTH","NORAD_CAT_ID":"45669","CLASSIFICATION_TYPE":"U","INCLINATION":"53.0544","GP_ID":"190395500","APOAPSIS":"548.452","EPHEMERIS_TYPE":"0","OBJECT_TYPE":"PAYLOAD","BSTAR":"0.00000899080000","REF_FRAME":"TEME","FILE":"3223022","MEAN_ANOMALY":"286.6537","LAUNCH_DATE":"2020-06-04","MEAN_MOTION_DOT":"-0.00000148","RCS_SIZE":"LARGE","ECCENTRICITY":"0.00017710","TIME_SYSTEM":"UTC","REV_AT_EPOCH":"8262","TLE_LINE1":"1 45669U 20035N   21328.19918234 -.00000148  00000-0  89908-5 0  9996","DECAY_DATE":null,"SITE":"AFETR","MEAN_MOTION":"15.06395994","ARG_OF_PERICENTER":"73.4646","COUNTRY_CODE":"US","EPOCH":"2021-11-24T04:46:49.354176","OBJECT_NAME":"STARLINK-1452","PERIAPSIS":"545.999","ELEMENT_SET_NO":"999","MEAN_MOTION_DDOT":"0.0000000000000","MEAN_ELEMENT_THEORY":"SGP4","SEMIMAJOR_AXIS":"6925.361","RA_OF_ASC_NODE":"258.8693","TLE_LINE2":"2 45669  53.0544 258.8693 0001771  73.4646 286.6537 15.06395994 82626","PERIOD":"95.592","OBJECT_ID":"2020-035N"},{"TLE_LINE1":"1 45670U 20035P   21328.12454665 -.00000178  00000-0  69878-5 0  9991","DECAY_DATE":null,"TIME_SYSTEM":"UTC","REV_AT_EPOCH":"8292","ECCENTRICITY":"0.00020800","RCS_SIZE":"LARGE","TLE_LINE2":"2 45670  53.0536 229.1990 0002080  72.9675 287.1541 15.06394470 82922","PERIOD":"95.592","RA_OF_ASC_NODE":"229.1990","SEMIMAJOR_AXIS":"6925.366","OBJECT_ID":"2020-035P","MEAN_MOTION_DDOT":"0.0000000000000","MEAN_ELEMENT_THEORY":"SGP4","OBJECT_NAME":"STARLINK-1453","PERIAPSIS":"545.790","COUNTRY_CODE":"US","EPOCH":"2021-11-24T02:59:20.830560","ELEMENT_SET_NO":"999","MEAN_MOTION":"15.06394470","SITE":"AFETR","ARG_OF_PERICENTER":"72.9675","EPHEMERIS_TYPE":"0","APOAPSIS":"548.671","GP_ID":"190396244","OBJECT_TYPE":"PAYLOAD","INCLINATION":"53.0536","CLASSIFICATION_TYPE":"U","NORAD_CAT_ID":"45670","CENTER_NAME":"EARTH","LAUNCH_DATE":"2020-06-04","MEAN_MOTION_DOT":"-0.00000178","BSTAR":"0.00000698780000","REF_FRAME":"TEME","FILE":"3223022","MEAN_ANOMALY":"287.1541"},{"REV_AT_EPOCH":"8263","TIME_SYSTEM":"UTC","DECAY_DATE":null,"TLE_LINE1":"1 45671U 20035Q   21328.33556144  .00000156  00000-0  29416-4 0  9998","RCS_SIZE":"LARGE","ECCENTRICITY":"0.00019660","MEAN_ELEMENT_THEORY":"SGP4","MEAN_MOTION_DDOT":"0.0000000000000","OBJECT_ID":"2020-035Q","RA_OF_ASC_NODE":"258.2568","SEMIMAJOR_AXIS":"6925.378","PERIOD":"95.593","TLE_LINE2":"2 45671  53.0544 258.2568 0001966  72.6158 287.5046 15.06390422 82636","ARG_OF_PERICENTER":"72.6158","MEAN_MOTION":"15.06390422","SITE":"AFETR","ELEMENT_SET_NO":"999","EPOCH":"2021-11-24T08:03:12.508416","COUNTRY_CODE":"US","PERIAPSIS":"545.881","OBJECT_NAME":"STARLINK-1454","OBJECT_TYPE":"PAYLOAD","GP_ID":"190396989","APOAPSIS":"548.604","EPHEMERIS_TYPE":"0","CENTER_NAME":"EARTH","NORAD_CAT_ID":"45671","INCLINATION":"53.0544","CLASSIFICATION_TYPE":"U","FILE":"3223022","MEAN_ANOMALY":"287.5046","REF_FRAME":"TEME","BSTAR":"0.00002941600000","MEAN_MOTION_DOT":"0.00000156","LAUNCH_DATE":"2020-06-04"},{"LAUNCH_DATE":"2020-06-04","MEAN_MOTION_DOT":"-0.00000617","BSTAR":"-0.00002255000000","REF_FRAME":"TEME","FILE":"3222645","MEAN_ANOMALY":"287.7517","GP_ID":"190367389","APOAPSIS":"548.456","EPHEMERIS_TYPE":"0","OBJECT_TYPE":"PAYLOAD","INCLINATION":"53.0538","CLASSIFICATION_TYPE":"U","CENTER_NAME":"EARTH","NORAD_CAT_ID":"45672","RA_OF_ASC_NODE":"229.1163","SEMIMAJOR_AXIS":"6925.395","TLE_LINE2":"2 45672  53.0538 229.1163 0001726  72.3661 287.7517 15.06384719 82624","PERIOD":"95.593","OBJECT_ID":"2020-035R","MEAN_MOTION_DDOT":"0.0000000000000","MEAN_ELEMENT_THEORY":"SGP4","EPOCH":"2021-11-24T03:31:10.991136","COUNTRY_CODE":"US","OBJECT_NAME":"STARLINK-1455","PERIAPSIS":"546.065","ELEMENT_SET_NO":"999","MEAN_MOTION":"15.06384719","SITE":"AFETR","ARG_OF_PERICENTER":"72.3661","TLE_LINE1":"1 45672U 20035R   21328.14665499 -.00000617  00000-0 -22550-4 0  9998","DECAY_DATE":null,"TIME_SYSTEM":"UTC","REV_AT_EPOCH":"8262","ECCENTRICITY":"0.00017260","RCS_SIZE":"LARGE"},{"RA_OF_ASC_NODE":"259.3903","SEMIMAJOR_AXIS":"6925.374","TLE_LINE2":"2 45673  53.0537 259.3903 0001720  67.0835 293.0335 15.06391782 82614","PERIOD":"95.593","OBJECT_ID":"2020-035S","MEAN_MOTION_DDOT":"0.0000000000000","MEAN_ELEMENT_THEORY":"SGP4","COUNTRY_CODE":"US","EPOCH":"2021-11-24T02:02:17.234880","PERIAPSIS":"546.048","OBJECT_NAME":"STARLINK-1456","ELEMENT_SET_NO":"999","SITE":"AFETR","MEAN_MOTION":"15.06391782","ARG_OF_PERICENTER":"67.0835","TLE_LINE1":"1 45673U 20035S   21328.08492170 -.00000672  00000-0 -26229-4 0  9994","DECAY_DATE":null,"TIME_SYSTEM":"UTC","REV_AT_EPOCH":"8261","ECCENTRICITY":"0.00017200","RCS_SIZE":"LARGE","LAUNCH_DATE":"2020-06-04","MEAN_MOTION_DOT":"-0.00000672","BSTAR":"-0.00002622900000","FILE":"3223022","REF_FRAME":"TEME","MEAN_ANOMALY":"293.0335","GP_ID":"190396001","EPHEMERIS_TYPE":"0","APOAPSIS":"548.430","OBJECT_TYPE":"PAYLOAD","CLASSIFICATION_TYPE":"U","INCLINATION":"53.0537","CENTER_NAME":"EARTH","NORAD_CAT_ID":"45673"},{"BSTAR":"-0.00001534500000","MEAN_ANOMALY":"298.2518","FILE":"3223205","REF_FRAME":"TEME","LAUNCH_DATE":"2020-06-04","MEAN_MOTION_DOT":"-0.00000510","EPHEMERIS_TYPE":"0","APOAPSIS":"548.675","GP_ID":"190423465","OBJECT_TYPE":"PAYLOAD","NORAD_CAT_ID":"45674","CENTER_NAME":"EARTH","CLASSIFICATION_TYPE":"U","INCLINATION":"53.0540","MEAN_MOTION_DDOT":"0.0000000000000","MEAN_ELEMENT_THEORY":"SGP4","PERIOD":"95.593","TLE_LINE2":"2 45674  53.0540 256.0737 0002052  61.8678 298.2518 15.06386902 82690","RA_OF_ASC_NODE":"256.0737","SEMIMAJOR_AXIS":"6925.389","OBJECT_ID":"2020-035T","SITE":"AFETR","MEAN_MOTION":"15.06386902","ARG_OF_PERICENTER":"61.8678","OBJECT_NAME":"STARLINK-1457","PERIAPSIS":"545.833","EPOCH":"2021-11-24T19:43:50.113056","COUNTRY_CODE":"US","ELEMENT_SET_NO":"999","TIME_SYSTEM":"UTC","REV_AT_EPOCH":"8269","TLE_LINE1":"1 45674U 20035T   21328.82210779 -.00000510  00000-0 -15345-4 0  9998","DECAY_DATE":null,"RCS_SIZE":"LARGE","ECCENTRICITY":"0.00020520"},{"SITE":"AFETR","MEAN_MOTION":"15.06396174","ARG_OF_PERICENTER":"55.8665","EPOCH":"2021-11-24T05:08:02.695776","COUNTRY_CODE":"US","OBJECT_NAME":"STARLINK-1458","PERIAPSIS":"546.070","ELEMENT_SET_NO":"999","MEAN_MOTION_DDOT":"0.0000000000000","MEAN_ELEMENT_THEORY":"SGP4","RA_OF_ASC_NODE":"258.8083","SEMIMAJOR_AXIS":"6925.360","TLE_LINE2":"2 45675  53.0518 258.8083 0001668  55.8665 304.2482 15.06396174 82590","PERIOD":"95.592","OBJECT_ID":"2020-035U","RCS_SIZE":"LARGE","ECCENTRICITY":"0.00016680","TIME_SYSTEM":"UTC","REV_AT_EPOCH":"8259","TLE_LINE1":"1 45675U 20035U   21328.21392009 -.00001451  00000-0 -78550-4 0  9991","DECAY_DATE":null,"BSTAR":"-0.00007855000000","FILE":"3223022","MEAN_ANOMALY":"304.2482","REF_FRAME":"TEME","LAUNCH_DATE":"2020-06-04","MEAN_MOTION_DOT":"-0.00001451","CENTER_NAME":"EARTH","NORAD_CAT_ID":"45675","CLASSIFICATION_TYPE":"U","INCLINATION":"53.0518","GP_ID":"190396489","APOAPSIS":"548.380","EPHEMERIS_TYPE":"0","OBJECT_TYPE":"PAYLOAD"},{"MEAN_MOTION":"15.06396561","SITE":"AFETR","ARG_OF_PERICENTER":"62.5252","PERIAPSIS":"546.108","OBJECT_NAME":"STARLINK-1460","COUNTRY_CODE":"US","EPOCH":"2021-11-24T04:25:35.400864","ELEMENT_SET_NO":"999","MEAN_MOTION_DDOT":"0.0000000000000","MEAN_ELEMENT_THEORY":"SGP4","TLE_LINE2":"2 45676  53.0542 258.9288 0001611  62.5252 297.5900 15.06396561 82589","PERIOD":"95.592","RA_OF_ASC_NODE":"258.9288","SEMIMAJOR_AXIS":"6925.359","OBJECT_ID":"2020-035V","RCS_SIZE":"LARGE","ECCENTRICITY":"0.00016110","TIME_SYSTEM":"UTC","REV_AT_EPOCH":"8258","TLE_LINE1":"1 45676U 20035V   21328.18443751 -.00000165  00000-0  78414-5 0  9999","DECAY_DATE":null,"BSTAR":"0.00000784140000","MEAN_ANOMALY":"297.5900","FILE":"3223022","REF_FRAME":"TEME","LAUNCH_DATE":"2020-06-04","MEAN_MOTION_DOT":"-0.00000165","NORAD_CAT_ID":"45676","CENTER_NAME":"EARTH","INCLINATION":"53.0542","CLASSIFICATION_TYPE":"U","APOAPSIS":"548.340","EPHEMERIS_TYPE":"0","GP_ID":"190395251","OBJECT_TYPE":"PAYLOAD"},{"TIME_SYSTEM":"UTC","REV_AT_EPOCH":"8262","TLE_LINE1":"1 45677U 20035W   21328.19550204  .00000278  00000-0  37564-4 0  9997","DECAY_DATE":null,"RCS_SIZE":"LARGE","ECCENTRICITY":"0.00014590","MEAN_MOTION_DDOT":"0.0000000000000","MEAN_ELEMENT_THEORY":"SGP4","SEMIMAJOR_AXIS":"6925.400","RA_OF_ASC_NODE":"258.8943","PERIOD":"95.593","TLE_LINE2":"2 45677  53.0551 258.8943 0001459  58.4241 301.6890 15.06383198 82621","OBJECT_ID":"2020-035W","SITE":"AFETR","MEAN_MOTION":"15.06383198","ARG_OF_PERICENTER":"58.4241","EPOCH":"2021-11-24T04:41:31.376256","COUNTRY_CODE":"US","PERIAPSIS":"546.255","OBJECT_NAME":"STARLINK-1392","ELEMENT_SET_NO":"999","GP_ID":"190395501","EPHEMERIS_TYPE":"0","APOAPSIS":"548.275","OBJECT_TYPE":"PAYLOAD","CENTER_NAME":"EARTH","NORAD_CAT_ID":"45677","CLASSIFICATION_TYPE":"U","INCLINATION":"53.0551","BSTAR":"0.00003756400000","MEAN_ANOMALY":"301.6890","FILE":"3223022","REF_FRAME":"TEME","LAUNCH_DATE":"2020-06-04","MEAN_MOTION_DOT":"0.00000278"},{"MEAN_MOTION_DOT":"-0.00000509","LAUNCH_DATE":"2020-06-04","REF_FRAME":"TEME","FILE":"3223022","MEAN_ANOMALY":"297.1983","BSTAR":"-0.00001528900000","CLASSIFICATION_TYPE":"U","INCLINATION":"53.0534","NORAD_CAT_ID":"45678","CENTER_NAME":"EARTH","OBJECT_TYPE":"PAYLOAD","EPHEMERIS_TYPE":"0","APOAPSIS":"548.557","GP_ID":"190396245","ELEMENT_SET_NO":"999","OBJECT_NAME":"STARLINK-1393","PERIAPSIS":"545.866","COUNTRY_CODE":"US","EPOCH":"2021-11-24T04:32:13.089696","ARG_OF_PERICENTER":"62.9204","MEAN_MOTION":"15.06400789","SITE":"AFETR","OBJECT_ID":"2020-035X","PERIOD":"95.592","TLE_LINE2":"2 45678  53.0534 248.9127 0001943  62.9204 297.1983 15.06400789 82745","RA_OF_ASC_NODE":"248.9127","SEMIMAJOR_AXIS":"6925.346","MEAN_ELEMENT_THEORY":"SGP4","MEAN_MOTION_DDOT":"0.0000000000000","ECCENTRICITY":"0.00019430","RCS_SIZE":"LARGE","DECAY_DATE":null,"TLE_LINE1":"1 45678U 20035X   21328.18904039 -.00000509  00000-0 -15289-4 0  9995","REV_AT_EPOCH":"8274","TIME_SYSTEM":"UTC"}];
